ONEWEB-0201             
1 48241U 21031AH  24103.46349979  .00000004  00000+0 -24010-4 0  9992
2 48241  87.8906  88.0628 0002056  91.4051 268.7314 13.14503794143842
ONEWEB-0207             
1 48242U 21031AJ  24103.51898427 -.00000437  00000+0 -12132-2 0  9997
2 48242  87.8905  88.0183 0002230  84.8603 275.2781 13.14502851143766
ONEWEB-0208             
1 48243U 21031AK  24103.50076434  .00000139  00000+0  34081-3 0  9998
2 48243  87.8905  88.0371 0001996  92.4232 267.7126 13.14503983143774
ONEWEB-0200             
1 48244U 21031AL  24103.46428909 -.00000047  00000+0 -16154-3 0  9993
2 48244  87.8903  88.0429 0002002  95.2472 264.8886 13.14504020143700
ONEWEB-0217             
1 48245U 21031AM  24103.48014324  .00000250  00000+0  63866-3 0  9994
2 48245  87.8905  88.0241 0001971  98.9900 261.1452 13.14500814143644
ONEWEB-0211             
1 48767U 21045A   24103.38325692  .00000134  00000+0  32286-3 0  9993
2 48767  87.9015  57.5404 0001931  83.5732 276.5618 13.15549891139780
ONEWEB-0223             
1 48768U 21045B   24103.40542180  .00000212  00000+0  52946-3 0  9992
2 48768  87.9022  57.5409 0001182  92.2064 267.9202 13.15551097139770
ONEWEB-0230             
1 48769U 21045C   24103.37692332  .00000091  00000+0  20834-3 0  9990
2 48769  87.9016  57.6185 0001877  77.4568 282.6772 13.15549165140031
ONEWEB-0237             
1 48770U 21045D   24103.36582398 -.00000062  00000+0 -19924-3 0  9999
2 48770  87.9025  57.5478 0001482  85.2982 274.8318 13.15550125139750
ONEWEB-0235             
1 48771U 21045E   24103.41652274  .00000073  00000+0  15877-3 0  9990
2 48771  87.9019  57.5529 0001113  82.6101 277.5156 13.15550967139750
ONEWEB-0242             
1 48772U 21045F   24103.41017752  .00000135  00000+0  32457-3 0  9999
2 48772  87.9018  57.5432 0001693  78.2680 281.8640 13.15550356139791
ONEWEB-0241             
1 48773U 21045G   24103.39751453  .00000229  00000+0  57362-3 0  9996
2 48773  87.9026  57.5865 0001696  95.8645 264.2679 13.15549060139708
ONEWEB-0243             
1 48774U 21045H   24103.42919152 -.00000025  00000+0 -10112-3 0  9991
2 48774  87.9028  57.5383 0001424  89.7119 270.4175 13.15550913139735
ONEWEB-0222             
1 48775U 21045J   24103.41256797  .00000119  00000+0  28202-3 0  9991
2 48775  87.9017  57.5528 0001661  88.4818 271.6502 13.15550754139774
ONEWEB-0244             
1 48776U 21045K   24103.36265597 -.00000080  00000+0 -24528-3 0  9990
2 48776  87.9015  57.5463 0001756  75.5724 284.5601 13.15549523140338
ONEWEB-0247             
1 48777U 21045L   24103.35947635 -.00000050  00000+0 -16657-3 0  9991
2 48777  87.9023  57.5828 0000781  79.7052 280.4166 13.15550484139775
ONEWEB-0245             
1 48778U 21045M   24103.43079709 -.00000049  00000+0 -16317-3 0  9990
2 48778  87.9016  57.5620 0001861  90.7992 269.3351 13.15549995139759
ONEWEB-0229             
1 48779U 21045N   24103.42603683 -.00000001  00000+0 -36280-4 0  9994
2 48779  87.9018  57.5558 0001723  79.4428 280.6897 13.15551775139780
ONEWEB-0228             
1 48780U 21045P   24103.36503338 -.00000102  00000+0 -30625-3 0  9993
2 48780  87.9013  57.5450 0001800  80.7243 279.4091 13.15549979139699
ONEWEB-0232             
1 48781U 21045Q   24103.35789573 -.00000055  00000+0 -18130-3 0  9994
2 48781  87.9010  57.5709 0001782  80.5844 279.5488 13.15549700140019
ONEWEB-0231             
1 48782U 21045R   24103.41178314  .00000091  00000+0  20657-3 0  9992
2 48782  87.9027  57.5798 0001606  82.7254 277.4059 13.15549723139711
ONEWEB-0234             
1 48783U 21045S   24103.43159222 -.00000101  00000+0 -30228-3 0  9991
2 48783  87.9018  57.5400 0003186  95.6693 264.4800 13.15548828139857
ONEWEB-0238             
1 48784U 21045T   24103.30956019  .00000154  00000+0  37566-3 0  9995
2 48784  87.9015  57.5829 0002074  83.4757 276.6609 13.15550425139736
ONEWEB-0240             
1 48785U 21045U   24103.39514565  .00000189  00000+0  46713-3 0  9993
2 48785  87.9016  57.5335 0001674  95.1491 264.9830 13.15549922139770
ONEWEB-0246             
1 48786U 21045V   24103.38959094  .00000194  00000+0  48061-3 0  9997
2 48786  87.9017  57.5381 0001799  77.7740 282.3591 13.15546739139641
ONEWEB-0210             
1 48787U 21045W   24103.36423257 -.00000131  00000+0 -38205-3 0  9995
2 48787  87.9016  57.5490 0001357  61.2597 298.8670 13.15548020139689
ONEWEB-0214             
1 48788U 21045X   24103.37375144 -.00000019  00000+0 -83426-4 0  9999
2 48788  87.9014  57.5359 0001498  63.5537 296.5747 13.15549328139656
ONEWEB-0221             
1 48789U 21045Y   24103.38006801 -.00000231  00000+0 -64889-3 0  9999
2 48789  87.9018  57.5508 0001680  87.2694 272.8629 13.15548193139742
ONEWEB-0213             
1 48790U 21045Z   24103.36899476 -.00000074  00000+0 -23193-3 0  9995
2 48790  87.9017  57.5679 0001549  86.2609 273.8698 13.15547000139801
ONEWEB-0212             
1 48791U 21045AA  24103.42207787  .00000044  00000+0  84097-4 0  9997
2 48791  87.9022  57.5384 0001987  83.1157 277.0199 13.15549915139800
ONEWEB-0227             
1 48792U 21045AB  24103.42128199 -.00000003  00000+0 -42429-4 0  9997
2 48792  87.9020  57.5549 0001800  84.3210 275.8125 13.15547843139756
ONEWEB-0226             
1 48793U 21045AC  24103.41495227  .00000065  00000+0  13791-3 0  9991
2 48793  87.9020  57.5633 0001313  76.4950 283.6326 13.15549772139723
ONEWEB-0224             
1 48794U 21045AD  24103.37850435  .00000082  00000+0  18307-3 0  9990
2 48794  87.9020  57.5890 0001771 107.4193 252.7131 13.15549374139641
ONEWEB-0233             
1 48795U 21045AE  24103.37452533 -.00000040  00000+0 -14096-3 0  9995
2 48795  87.9020  57.6016 0001759  77.4731 282.6596 13.15549777139669
ONEWEB-0190             
1 48796U 21045AF  24103.37056106 -.00000291  00000+0 -80765-3 0  9996
2 48796  87.9018  57.5653 0000880 102.7590 257.3639 13.15548123139731
ONEWEB-0236             
1 48797U 21045AG  24103.38801335  .00000169  00000+0  41573-3 0  9996
2 48797  87.9025  57.5531 0001885  85.0582 275.0763 13.15549491139627
ONEWEB-0248             
1 48798U 21045AH  24103.40066888  .00000179  00000+0  44101-3 0  9997
2 48798  87.9017  57.5470 0001590 107.7353 252.3951 13.15550514139784
ONEWEB-0225             
1 48799U 21045AJ  24103.42286371  .00000002  00000+0 -29587-4 0  9999
2 48799  87.9025  57.5513 0001466  90.8682 269.2616 13.15550351139796
ONEWEB-0215             
1 48800U 21045AK  24103.39277740  .00000198  00000+0  49232-3 0  9991
2 48800  87.9014  57.5353 0001272 109.2495 250.8773 13.15548933139660
ONEWEB-0216             
1 48801U 21045AL  24103.40228002  .00000191  00000+0  47428-3 0  9999
2 48801  87.9017  57.5735 0001748  73.1992 286.9330 13.15549466139679
ONEWEB-0239             
1 48802U 21045AM  24103.40702665  .00000156  00000+0  38012-3 0  9992
2 48802  87.9027  57.5424 0001544 114.0580 246.0712 13.15546705139717
ONEWEB-0249             
1 48967U 21060A   24103.28793779  .00000128  00000+0  30154-3 0  9991
2 48967  87.9148  27.1824 0001896  78.7059 281.4285 13.16593414134888
ONEWEB-0250             
1 48968U 21060B   24103.29267313  .00000014  00000+0  30269-5 0  9996
2 48968  87.9146  27.1652 0001675  88.5912 271.5410 13.16596483134865
ONEWEB-0252             
1 48970U 21060D   24103.31959688  .00000118  00000+0  27396-3 0  9995
2 48970  87.9151  27.1690 0001740  74.2043 285.9280 13.16596774134931
ONEWEB-0253             
1 48971U 21060E   24103.30851034  .00000162  00000+0  38929-3 0  9994
2 48971  87.9147  27.1849 0001535  80.6329 279.4975 13.16592547134868
ONEWEB-0254             
1 48972U 21060F   24103.31801477  .00000117  00000+0  27367-3 0  9996
2 48972  87.9151  27.1595 0001513  81.2456 278.8846 13.16592375134865
ONEWEB-0255             
1 48973U 21060G   24103.28001077 -.00000387  00000+0 -10447-2 0  9992
2 48973  87.9150  27.2018 0001857  80.9656 279.1685 13.16594694134934
ONEWEB-0256             
1 48974U 21060H   24103.30614785  .00000095  00000+0  21565-3 0  9990
2 48974  87.9152  27.1980 0001903  72.7847 287.3492 13.16593992134901
ONEWEB-0257             
1 48975U 21060J   24103.33860198  .00000084  00000+0  18510-3 0  9999
2 48975  87.9151  27.1637 0001739  74.2225 285.9097 13.16593457134860
ONEWEB-0258             
1 48976U 21060K   24103.34017705  .00000021  00000+0  20239-4 0  9992
2 48976  87.9151  27.1923 0001883  80.6220 279.5124 13.16593136134870
ONEWEB-0259             
1 48977U 21060L   24103.33384567  .00000048  00000+0  91498-4 0  9999
2 48977  87.9152  27.1784 0001780  88.0988 272.0347 13.16592520134901
ONEWEB-0260             
1 48978U 21060M   24103.32517303  .00000102  00000+0  23424-3 0  9999
2 48978  87.9152  27.2086 0001773  57.9143 302.2159 13.16593750134888
ONEWEB-0261             
1 48979U 21060N   24103.29426834  .00000044  00000+0  82615-4 0  9997
2 48979  87.9149  27.2071 0001214  78.6666 281.4601 13.16593156134935
ONEWEB-0262             
1 48980U 21060P   24103.35127410  .00000036  00000+0  61693-4 0  9998
2 48980  87.9150  27.1616 0001609  94.5721 265.5594 13.16594717134905
ONEWEB-0263             
1 48981U 21060Q   24103.30691989 -.00000169  00000+0 -47615-3 0  9997
2 48981  87.9151  27.1847 0001337  88.2030 271.9254 13.16595768134860
ONEWEB-0264             
1 48982U 21060R   24103.34413546 -.00000036  00000+0 -12804-3 0  9998
2 48982  87.9153  27.1892 0001800  78.2072 281.9261 13.16592524134870
ONEWEB-0266             
1 48984U 21060T   24103.28952262  .00000009  00000+0 -95150-5 0  9992
2 48984  87.9147  27.1793 0001974  81.8120 278.3234 13.16596681134857
ONEWEB-0267             
1 48985U 21060U   24103.30058763  .00000062  00000+0  12856-3 0  9997
2 48985  87.9148  27.1785 0001425  74.6267 285.5021 13.16597493134860
ONEWEB-0268             
1 48986U 21060V   24103.34492787 -.00000072  00000+0 -22166-3 0  9998
2 48986  87.9150  27.1755 0001765  74.2858 285.8467 13.16596914135135
